GLOBALSTAR M069         
1 31573U 07020C   26193.02180134 -.00000073  00000+0  18354-3 0  9992
2 31573  52.0008 181.8340 0001749 203.5350 195.4068 12.23472136881843
GLOBALSTAR M072         
1 31574U 07020D   26192.98806987 -.00000077  00000+0  97318-4 0  9990
2 31574  51.9945  34.2189 0001645  29.1338 138.4439 11.91658661877934
GLOBALSTAR M066         
1 32265U 07048C   26192.61403951 -.00000060  00000+0  29018-3 0  9995
2 32265  51.9610 347.7907 0005631  94.7566 346.3596 12.30389084863237
GLOBALSTAR M079         
1 37188U 10054A   26192.85180525 -.00000104  00000+0  48976-6 0  9996
2 37188  52.0050  33.5873 0001106  72.0671  35.0842 12.62266403725661
GLOBALSTAR M074         
1 37189U 10054B   26192.96626307 -.00000095  00000+0  48106-4 0  9994
2 37189  52.0028  32.5003 0000871  88.9916  58.5530 12.62262039726281
GLOBALSTAR M076         
1 37190U 10054C   26192.99628999 -.00000089  00000+0  80489-4 0  9991
2 37190  52.0042  32.6145 0001094  84.7807  79.1794 12.62262229726000
GLOBALSTAR M077         
1 37191U 10054D   26192.20560848 -.00000090  00000+0 -21220-3 0  9994
2 37191  51.9950 118.3324 0002340 217.9589 313.2859 11.67547721723941
GLOBALSTAR M075         
1 37192U 10054E   26193.08495419 -.00000106  00000+0 -98916-5 0  9999
2 37192  51.9949  74.3846 0000704  60.3305  87.1797 12.62267762725083
GLOBALSTAR M073         
1 37193U 10054F   26192.75929355 -.00000104  00000+0 -23517-5 0  9997
2 37193  52.0080 349.4956 0001091  91.6766  13.6072 12.62266858727030
GLOBALSTAR M083         
1 37739U 11033A   26193.22697663 -.00000089  00000+0  84315-4 0  9991
2 37739  51.9871 296.2678 0000834 102.6370 270.1984 12.62264013696117
GLOBALSTAR M088         
1 37740U 11033B   26193.04731001 -.00000082  00000+0  12258-3 0  9997
2 37740  52.0186 203.3016 0000100 156.9399 237.7264 12.62269410691632
GLOBALSTAR M091         
1 37741U 11033C   26192.98134176 -.00000103  00000+0  36939-5 0  9998
2 37741  51.9975 166.4303 0000348  16.4669  18.9343 12.62264257692417
GLOBALSTAR M085         
1 37742U 11033D   26193.14910066 -.00000114  00000+0 -54730-4 0  9999
2 37742  52.0122 117.2336 0000722  37.0398 101.0784 12.62264339692940
GLOBALSTAR M081         
1 37743U 11033E   26193.17611219 -.00000124  00000+0 -11255-3 0  9996
2 37743  51.9951 119.5590 0000602  50.3546  90.3914 12.62265311693099
GLOBALSTAR M089         
1 37744U 11033F   26193.05736676 -.00000107  00000+0 -16870-4 0  9999
2 37744  51.9933  74.0749 0000669  86.0364  55.9244 12.62267549693928
GLOBALSTAR M084         
1 38040U 11080A   26192.33406171 -.00000097  00000+0  36683-4 0  9996
2 38040  52.0028 303.7724 0000939 123.2364 270.2173 12.62267887671816
GLOBALSTAR M080         
1 38041U 11080B   26192.63798083 -.00000088  00000+0  87781-4 0  9991
2 38041  52.0064 304.5731 0000351  79.9966  25.0463 12.62257312671974
GLOBALSTAR M082         
1 38042U 11080C   26192.49454983 -.00000080  00000+0  13160-3 0  9995
2 38042  52.0064 260.5143 0000224 107.7506 355.0535 12.62264040672661
GLOBALSTAR M092         
1 38043U 11080D   26192.62171733 -.00000091  00000+0  70165-4 0  9991
2 38043  52.0104 350.5237 0000821  97.9552 342.3151 12.62267684671136
GLOBALSTAR M090         
1 38044U 11080E   26191.23949641 -.00000081  00000+0  12812-3 0  9992
2 38044  52.0114 258.2983 0000451 107.2704 288.2798 12.62253056672621
GLOBALSTAR M086         
1 38045U 11080F   26193.15726029 -.00000080  00000+0  13497-3 0  9998
2 38045  51.9881 252.3489 0001566 107.5659 270.3720 12.62287700672818
GLOBALSTAR M097         
1 39072U 13005A   26192.94751050 -.00000106  00000+0 -11064-4 0  9995
2 39072  52.0024 167.9625 0000344  35.7259 324.3631 12.62271437620032
GLOBALSTAR M093         
1 39073U 13005B   26192.36644138 -.00000097  00000+0  35001-4 0  9995
2 39073  52.0084 163.0872 0000558  38.9573 321.1334 12.62266337619914
GLOBALSTAR M094         
1 39074U 13005C   26192.84139674 -.00000110  00000+0 -37090-4 0  9990
2 39074  51.9959  75.7345 0000919  58.7700 301.3257 12.62264123621582
GLOBALSTAR M096         
1 39075U 13005D   26191.19205918 -.00000106  00000+0 -12180-4 0  9991
2 39075  52.0063 129.5750 0000628  32.6639 327.4266 12.62265688620291
GLOBALSTAR M078         
1 39076U 13005E   26193.06559568 -.00000083  00000+0  11342-3 0  9994
2 39076  51.9843 207.8490 0000758 328.5209  31.5612 12.62260125619153
GLOBALSTAR M095         
1 39077U 13005F   26193.01309839 -.00000078  00000+0  14189-3 0  9990
2 39077  52.0053 205.6478 0000341   9.4769 350.6104 12.62264165619008
GLOBALSTAR M087         
1 52888U 22064A   26192.63030469 -.00000104  00000+0  10058-5 0  9990
2 52888  52.0016 348.0370 0000936  80.7858 279.3115 12.62269310194224
